[{"OBJECT_NAME":"STARLINK-3979","OBJECT_ID":"2022-052L","EPOCH":"2026-03-09T20:14:38.880384","MEAN_MOTION":15.0882868,"ECCENTRICITY":0.00012068,"INCLINATION":53.216,"RA_OF_ASC_NODE":278.4314,"ARG_OF_PERICENTER":87.0054,"MEAN_ANOMALY":273.1076,"EPHEMERIS_TYPE":0,"CLASSIFICATION_TYPE":"U","NORAD_CAT_ID":52608,"ELEMENT_SET_NO":999,"REV_AT_EPOCH":21088,"BSTAR":4.5176425e-5,"MEAN_MOTION_DOT":4.31e-6,"MEAN_MOTION_DDOT":0},{"OBJECT_NAME":"POSAT-2","OBJECT_ID":"2025-009DR","EPOCH":"2026-03-09T23:15:20.314368","MEAN_MOTION":15.10404492,"ECCENTRICITY":0.00077103,"INCLINATION":97.4906,"RA_OF_ASC_NODE":146.0095,"ARG_OF_PERICENTER":126.4226,"MEAN_ANOMALY":233.7715,"EPHEMERIS_TYPE":0,"CLASSIFICATION_TYPE":"U","NORAD_CAT_ID":63488,"ELEMENT_SET_NO":999,"REV_AT_EPOCH":5165,"BSTAR":0.0010942248,"MEAN_MOTION_DOT":0.00017957,"MEAN_MOTION_DDOT":0}]
